GPS BIIR-2  (PRN 13)    
1 24876U 97035A   17241.36001417  .00000053  00000-0  00000+0 0  9995
2 24876  55.5383 224.2311 0032726 102.2688 258.0924  2.00561050147292
GPS BIIR-3  (PRN 11)    
1 25933U 99055A   17241.45367241 -.00000045  00000-0  00000+0 0  9996
2 25933  51.6836  74.4298 0168304  96.5970 259.9370  2.00556972131113
GPS BIIR-4  (PRN 20)    
1 26360U 00025A   17241.52188769 -.00000042  00000-0  00000+0 0  9991
2 26360  53.1285 151.8326 0042621  94.8724  53.9411  2.00556553126809
GPS BIIR-5  (PRN 28)    
1 26407U 00040A   17241.50326800 -.00000095  00000-0  00000+0 0  9996
2 26407  56.6083 342.2921 0200426 270.2441 147.5500  2.00566295125483
GPS BIIR-6  (PRN 14)    
1 26605U 00071A   17241.26034038  .00000050  00000-0  00000+0 0  9992
2 26605  55.1101 221.9385 0095716 248.7895 261.8363  2.00561936123080
GPS BIIR-7  (PRN 18)    
1 26690U 01004A   17241.30147365 -.00000038  00000-0  00000+0 0  9993
2 26690  53.0494 154.7757 0183579 257.9053  33.9578  2.00568610121489
GPS BIIR-8  (PRN 16)    
1 27663U 03005A   17241.22866150 -.00000095  00000-0  00000+0 0  9991
2 27663  56.6764 342.0461 0091705  25.2228 309.8433  2.00555082106849
GPS BIIR-9  (PRN 21)    
1 27704U 03010A   17240.76426565 -.00000045  00000-0  00000+0 0  9998
2 27704  53.9007  95.2078 0241595 265.7279  57.7318  2.00569931105632
GPS BIIR-10 (PRN 22)    
1 28129U 03058A   17241.05442952 -.00000037  00000-0  00000+0 0  9994
2 28129  52.9393 154.7681 0075536 263.7246  95.4397  2.00554947100333
GPS BIIR-11 (PRN 19)    
1 28190U 04009A   17241.11606078 -.00000051  00000-0  00000+0 0  9993
2 28190  56.0443  43.0327 0099282  59.8605 348.6904  2.00563642 98511
GPS BIIR-12 (PRN 23)    
1 28361U 04023A   17241.50647111  .00000043  00000-0  00000+0 0  9995
2 28361  54.0989 216.9669 0120468 221.8097  18.3075  2.00561158 96609
GPS BIIR-13 (PRN 02)    
1 28474U 04045A   17241.09917141 -.00000042  00000-0  00000+0 0  9991
2 28474  54.2781  94.6938 0172069 247.9237  59.8457  2.00575392 93960
GPS BIIRM-1 (PRN 17)    
1 28874U 05038A   17241.52694421 -.00000052  00000-0  00000+0 0  9990
2 28874  56.1977  40.2886 0120045 254.4349 112.7841  2.00563678 87373
GPS BIIRM-2 (PRN 31)    
1 29486U 06042A   17241.25787767  .00000000  00000-0  00000+0 0  9994
2 29486  55.3527 279.3642 0085455 344.2888 106.8544  2.00552762 80088
GPS BIIRM-3 (PRN 12)    
1 29601U 06052A   17241.07277651 -.00000095  00000-0  00000+0 0  9995
2 29601  56.6497 340.9709 0063711  51.1735 309.4239  2.00557797 78994
GPS BIIRM-4 (PRN 15)    
1 32260U 07047A   17240.89300839  .00000038  00000-0  00000+0 0  9995
2 32260  53.2248 213.2757 0093796  32.9550 327.6082  2.00571621 72375
GPS BIIRM-5 (PRN 29)    
1 32384U 07062A   17241.24969553 -.00000052  00000-0  00000+0 0  9990
2 32384  56.2638  40.8864 0004104  27.1231   9.2666  2.00575442 71115
GPS BIIRM-6 (PRN 07)    
1 32711U 08012A   17241.29838068  .00000001  00000-0  00000+0 0  9994
2 32711  55.0820 278.7125 0111350 213.9259 145.4160  2.00557867 69297
GPS BIIRM-8 (PRN 05)    
1 35752U 09043A   17241.50833110 -.00000037  00000-0  00000+0 0  9994
2 35752  54.2620 156.5463 0050699  31.4231 142.1821  2.00546654 58886
GPS BIIF-1  (PRN 25)    
1 36585U 10022A   17241.01569597 -.00000095  00000-0  00000+0 0  9993
2 36585  55.9532 337.7401 0063879  46.2138 243.6662  2.00553552 53127
GPS BIIF-2  (PRN 01)    
1 37753U 11036A   17241.48432574 -.00000037  00000-0  00000+0 0  9998
2 37753  55.4833  97.8510 0068736  33.4663 318.2206  2.00562925 44810
GPS BIIF-3  (PRN 24)    
1 38833U 12053A   17240.48830282 -.00000003  00000-0  00000+0 0  9998
2 38833  54.1112 275.5906 0057321  24.8018 335.5286  2.00562858 35866
GPS BIIF-4  (PRN 27)    
1 39166U 13023A   17241.33824941 -.00000057  00000-0  00000+0 0  9995
2 39166  55.9032  37.2875 0048337  20.3258 339.8837  2.00564536 31419
GPS BIIF-5  (PRN 30)    
1 39533U 14008A   17241.34198577 -.00000004  00000-0  00000+0 0  9999
2 39533  54.2628 280.8628 0030728 188.1442 171.8661  2.00567830 25776
GPS BIIF-6  (PRN 06)    
1 39741U 14026A   17240.62348966 -.00000043  00000-0  00000+0 0  9992
2 39741  55.4690  97.4060 0007931 290.5797  69.4117  2.00556528 24041
GPS BIIF-7  (PRN 09)    
1 40105U 14045A   17241.20884307  .00000045  00000-0  00000+0 0  9999
2 40105  54.6230 216.9247 0005505 118.4628 241.5796  2.00550185 22507
GPS BIIF-8  (PRN 03)    
1 40294U 14068A   17241.08692930 -.00000032  00000-0  00000+0 0  9995
2 40294  55.0104 157.6003 0008753   6.3524 353.6800  2.00563940 20726
GPS BIIF-9  (PRN 26)    
1 40534U 15013A   17241.22466181 -.00000095  00000-0  00000+0 0  9995
2 40534  54.9051 336.7537 0018581 354.0092   6.0042  2.00554044 17792
GPS BIIF-10  (PRN 08)   
1 40730U 15033A   17241.37931770 -.00000058  00000-0  00000+0 0  9991
2 40730  55.4370  36.9240 0027072 320.3041  39.5160  2.00563121 15555
GPS BIIF-11  (PRN 10)   
1 41019U 15062A   17240.93526692 -.00000031  00000-0  00000+0 0  9999
2 41019  55.0188 157.3975 0027909 202.4712 157.4284  2.00563773 13363
GPS BIIF-12  (PRN 32)   
1 41328U 16007A   17241.02602201  .00000046  00000-0  00000+0 0  9999
2 41328  54.8788 217.1418 0015658 221.5872 138.2805  2.00553835 11422
